NORAD_CAT_ID,OBJECT_NAME,OBJECT_TYPE,EPOCH,MEAN_MOTION,ECCENTRICITY,INCLINATION,RA_OF_ASC_NODE,ARG_OF_PERICENTER,MEAN_ANOMALY,BSTAR,MEAN_MOTION_DOT,MEAN_MOTION_DDOT,TLE_LINE0,TLE_LINE1,TLE_LINE2,SEMIMAJOR_AXIS,PERIOD,APOGEE,PERIGEE,DECAYED
54796.0,STARLINK-5415,PAYLOAD,2023-09-06 18:51:18,15.08842857,0.0001165,53.2175,176.0347,85.6314,274.4811,0.00011127,1.484e-05,0.0,0 STARLINK-5415,1 54796U 22175AQ  23249.78562766  .00001484  00000-0  11127-3 0  9997,2 54796  53.2175 176.0347 0001165  85.6314 274.4811 15.08842857 42016,6917.872,95.437,540.543,538.931,0.0
54796.0,STARLINK-5415,PAYLOAD,2023-09-07 01:12:50,15.08843542,0.0001157,53.2172,174.8453,82.9024,277.21,0.00011069,1.474e-05,0.0,0 STARLINK-5415,1 54796U 22175AQ  23250.05058703  .00001474  00000-0  11069-3 0  9994,2 54796  53.2172 174.8453 0001157  82.9024 277.2100 15.08843542 39892,6917.87,95.437,540.535,538.934,0.0
54796.0,STARLINK-5415,PAYLOAD,2023-09-07 18:42:05,15.08840435,0.0001229,53.2172,171.5754,90.5406,269.5727,4.7629e-05,4.7e-06,0.0,0 STARLINK-5415,1 54796U 22175AQ  23250.77922889  .00000470  00000-0  47629-4 0  9995,2 54796  53.2172 171.5754 0001229  90.5406 269.5727 15.08840435 42160,6917.879,95.438,540.594,538.894,0.0
54796.0,STARLINK-5415,PAYLOAD,2023-09-08 01:03:37,15.08842409,0.0001568,53.2184,170.386,96.4365,263.6805,6.7504e-05,7.87e-06,0.0,0 STARLINK-5415,1 54796U 22175AQ  23251.04418526  .00000787  00000-0  67504-4 0  9999,2 54796  53.2184 170.3860 0001568  96.4365 263.6805 15.08842409 42203,6917.873,95.437,540.823,538.653,0.0
54796.0,STARLINK-5415,PAYLOAD,2023-09-09 00:54:24,15.08841108,0.0001315,53.2172,165.9256,98.2582,261.8559,3.7194e-05,3.04e-06,0.0,0 STARLINK-5415,1 54796U 22175AQ  23252.03778724  .00000304  00000-0  37194-4 0  9995,2 54796  53.2172 165.9256 0001315  98.2582 261.8559 15.08841108 40197,6917.877,95.437,540.652,538.832,0.0
54796.0,STARLINK-5415,PAYLOAD,2023-09-10 03:55:58,15.08843158,0.0001229,53.2165,160.869,96.8254,263.2878,5.5498e-05,5.96e-06,0.0,0 STARLINK-5415,1 54796U 22175AQ  23253.16386601  .00000596  00000-0  55498-4 0  9999,2 54796  53.2165 160.8690 0001229  96.8254 263.2878 15.08843158 40365,6917.871,95.437,540.586,538.886,0.0
54796.0,STARLINK-5415,PAYLOAD,2023-09-10 18:14:27,15.08819721,0.0001418,53.216,158.1906,105.8254,254.2894,0.00011835,1.595e-05,0.0,0 STARLINK-5415,1 54796U 22175AQ  23253.76003851  .00001595  00000-0  11835-3 0  9994,2 54796  53.2160 158.1906 0001418 105.8254 254.2894 15.08819721 40458,6917.942,95.439,540.788,538.826,0.0
54796.0,STARLINK-5415,PAYLOAD,2023-09-11 10:08:18,15.0883838,0.0001247,53.2171,155.2207,97.2091,262.9043,1.8452e-05,6e-08,0.0,0 STARLINK-5415,1 54796U 22175AQ  23254.42243479  .00000006  00000-0  18452-4 0  9999,2 54796  53.2171 155.2207 0001247  97.2091 262.9043 15.08838380 40550,6917.885,95.438,540.613,538.888,0.0
54796.0,STARLINK-5415,PAYLOAD,2023-09-12 02:02:09,15.08844753,0.000128,53.2173,152.2475,93.6388,266.4751,0.00013799,1.909e-05,0.0,0 STARLINK-5415,1 54796U 22175AQ  23255.08482916  .00001909  00000-0  13799-3 0  9994,2 54796  53.2173 152.2475 0001280  93.6388 266.4751 15.08844753 40659,6917.866,95.437,540.616,538.845,0.0
54796.0,STARLINK-5415,PAYLOAD,2023-09-12 21:06:47,15.08835329,0.0001474,53.2175,148.6809,97.3914,262.7246,6.8913e-05,8.09e-06,0.0,0 STARLINK-5415,1 54796U 22175AQ  23255.87971867  .00000809  00000-0  68913-4 0  9996,2 54796  53.2175 148.6809 0001474  97.3914 262.7246 15.08835329 42932,6917.895,95.438,540.779,538.74,0.0
54796.0,STARLINK-5415,PAYLOAD,2023-09-13 00:17:33,15.08844036,0.0001345,53.2168,148.0837,78.0232,282.0911,0.00012781,1.747e-05,0.0,0 STARLINK-5415,1 54796U 22175AQ  23256.01219247  .00001747  00000-0  12781-3 0  9993,2 54796  53.2168 148.0837 0001345  78.0232 282.0911 15.08844036 40796,6917.868,95.437,540.664,538.803,0.0
54796.0,STARLINK-5415,PAYLOAD,2023-09-13 20:57:33,15.08847284,0.0001482,53.217,144.2174,84.2857,275.8304,6.9576e-05,8.2e-06,0.0,0 STARLINK-5415,1 54796U 22175AQ  23256.87330966  .00000820  00000-0  69576-4 0  9995,2 54796  53.2170 144.2174 0001482  84.2857 275.8304 15.08847284 43084,6917.858,95.437,540.748,538.698,0.0
54796.0,STARLINK-5415,PAYLOAD,2023-09-14 01:43:42,15.08858181,0.0001167,53.2165,143.325,81.8086,278.3038,0.00011691,1.574e-05,0.0,0 STARLINK-5415,1 54796U 22175AQ  23257.07202005  .00001574  00000-0  11691-3 0  9991,2 54796  53.2165 143.3250 0001167  81.8086 278.3038 15.08858181 40953,6917.825,95.436,540.497,538.883,0.0
54796.0,STARLINK-5415,PAYLOAD,2023-09-14 14:26:49,15.08837128,0.0001704,53.2171,140.9433,62.4859,297.6306,-6.7898e-05,-1.368e-05,0.0,0 STARLINK-5415,1 54796U 22175AQ  23257.60196118 -.00001368  00000-0 -67898-4 0  9991,2 54796  53.2171 140.9433 0001704  62.4859 297.6306 15.08837128 41036,6917.889,95.438,540.933,538.575,0.0
54796.0,STARLINK-5415,PAYLOAD,2023-09-14 20:48:22,15.08834607,0.0001503,53.217,139.7594,81.1631,278.9532,-8.9663e-05,-1.714e-05,0.0,0 STARLINK-5415,1 54796U 22175AQ  23257.86692287 -.00001714  00000-0 -89663-4 0  9996,2 54796  53.2170 139.7594 0001503  81.1631 278.9532 15.08834607 43238,6917.897,95.438,540.802,538.722,0.0
54796.0,STARLINK-5415,PAYLOAD,2023-09-15 01:34:31,15.08838615,0.0001422,53.2167,138.8649,82.7072,277.4082,-5.8897e-05,-1.225e-05,0.0,0 STARLINK-5415,1 54796U 22175AQ  23258.06563918 -.00001225  00000-0 -58897-4 0  9999,2 54796  53.2167 138.8649 0001422  82.7072 277.4082 15.08838615 43261,6917.885,95.438,540.733,538.766,0.0
54796.0,STARLINK-5415,PAYLOAD,2023-09-15 22:14:30,15.08852777,0.0001355,53.2166,134.9992,90.2949,269.8198,2.3917e-05,9.3e-07,0.0,0 STARLINK-5415,1 54796U 22175AQ  23258.92674670  .00000093  00000-0  23917-4 0  9997,2 54796  53.2166 134.9992 0001355  90.2949 269.8198 15.08852777 41233,6917.841,95.437,540.644,538.769,0.0
54796.0,STARLINK-5415,PAYLOAD,2023-09-16 01:25:16,15.08855656,0.0001353,53.2165,134.4045,92.6622,267.4525,5.9737e-05,6.63e-06,0.0,0 STARLINK-5415,1 54796U 22175AQ  23259.05922332  .00000663  00000-0  59737-4 0  9995,2 54796  53.2165 134.4045 0001353  92.6622 267.4525 15.08855656 43417,6917.833,95.437,540.634,538.762,0.0
54796.0,STARLINK-5415,PAYLOAD,2023-09-16 15:43:46,15.08831323,0.0001547,53.2163,131.7286,88.9133,271.2037,0.00011921,1.609e-05,0.0,0 STARLINK-5415,1 54796U 22175AQ  23259.65539853  .00001609  00000-0  11921-3 0  9996,2 54796  53.2163 131.7286 0001547  88.9133 271.2037 15.08831323 41348,6917.907,95.438,540.842,538.702,0.0
54796.0,STARLINK-5415,PAYLOAD,2023-09-17 01:16:05,15.088373,0.0001455,53.2163,129.9436,93.1159,267.0,0.00017527,2.502e-05,0.0,0 STARLINK-5415,1 54796U 22175AQ  23260.05283693  .00002502  00000-0  17527-3 0  9991,2 54796  53.2163 129.9436 0001455  93.1159 267.0000 15.08837300 43568,6917.889,95.438,540.76,538.747,0.0
54796.0,STARLINK-5415,PAYLOAD,2023-09-17 18:45:19,15.08845867,0.0001376,53.2161,126.6714,95.4406,264.6743,2.7084e-05,1.43e-06,0.0,0 STARLINK-5415,1 54796U 22175AQ  23260.78147517  .00000143  00000-0  27084-4 0  9994,2 54796  53.2161 126.6714 0001376  95.4406 264.6743 15.08845867 41518,6917.862,95.437,540.679,538.776,0.0
54796.0,STARLINK-5415,PAYLOAD,2023-09-17 23:31:28,15.08853101,0.0001311,53.2162,125.78,92.4865,267.6277,8.4935e-05,1.065e-05,0.0,0 STARLINK-5415,1 54796U 22175AQ  23260.98018959  .00001065  00000-0  84935-4 0  9995,2 54796  53.2162 125.7800 0001311  92.4865 267.6277 15.08853101 41548,6917.84,95.437,540.612,538.798,0.0
54796.0,STARLINK-5415,PAYLOAD,2023-09-18 20:11:30,15.0883547,0.0001348,53.2165,121.9134,96.9467,263.1679,4.1364e-05,3.7e-06,0.0,0 STARLINK-5415,1 54796U 22175AQ  23261.84132232  .00000370  00000-0  41364-4 0  9999,2 54796  53.2165 121.9134 0001348  96.9467 263.1679 15.08835470 43836,6917.894,95.438,540.692,538.827,0.0
54796.0,STARLINK-5415,PAYLOAD,2023-09-19 00:57:39,15.08843731,0.000127,53.2162,121.0208,90.0406,270.0732,0.00011877,1.603e-05,0.0,0 STARLINK-5415,1 54796U 22175AQ  23262.04003606  .00001603  00000-0  11877-3 0  9999,2 54796  53.2162 121.0208 0001270  90.0406 270.0732 15.08843731 41708,6917.869,95.437,540.613,538.855,0.0
54796.0,STARLINK-5415,PAYLOAD,2023-09-20 00:48:25,15.08855343,0.0001253,53.2149,116.561,86.209,273.9046,0.00024632,3.636e-05,0.0,0 STARLINK-5415,1 54796U 22175AQ  23263.03362816  .00003636  00000-0  24632-3 0  9991,2 54796  53.2149 116.5610 0001253  86.2090 273.9046 15.08855343 41854,6917.833,95.437,540.565,538.832,0.0
54796.0,STARLINK-5415,PAYLOAD,2023-09-20 18:17:41,15.0882975,0.0001456,53.2152,113.2892,66.7859,293.3287,-0.00011463,-2.111e-05,0.0,0 STARLINK-5415,1 54796U 22175AQ  23263.76228430 -.00002111  00000-0 -11463-3 0  9991,2 54796  53.2152 113.2892 0001456  66.7859 293.3287 15.08829750 41963,6917.912,95.438,540.784,538.769,0.0
54796.0,STARLINK-5415,PAYLOAD,2023-09-20 21:28:27,15.08823302,0.0001456,53.2155,112.6956,86.1453,273.9706,-0.00023316,-3.995e-05,0.0,0 STARLINK-5415,1 54796U 22175AQ  23263.89476619 -.00003995  00000-0 -23316-3 0  9990,2 54796  53.2155 112.6956 0001456  86.1453 273.9706 15.08823302 44146,6917.931,95.439,540.804,538.789,0.0
54796.0,STARLINK-5415,PAYLOAD,2023-09-21 21:19:14,15.08842204,0.0001342,53.2154,108.2347,89.7377,270.3769,0.00010221,1.339e-05,0.0,0 STARLINK-5415,1 54796U 22175AQ  23264.88836566  .00001339  00000-0  10221-3 0  9990,2 54796  53.2154 108.2347 0001342  89.7377 270.3769 15.08842204 44296,6917.874,95.437,540.667,538.81,0.0
54796.0,STARLINK-5415,PAYLOAD,2023-09-22 19:34:39,15.08847088,0.0001475,53.2153,104.0745,90.8112,269.3049,0.0004245,6.476e-05,0.0,0 STARLINK-5415,1 54796U 22175AQ  23265.81572967  .00006476  00000-0  42450-3 0  9992,2 54796  53.2153 104.0745 0001475  90.8112 269.3049 15.08847088 44438,6917.859,95.437,540.744,538.703,0.0
54796.0,STARLINK-5415,PAYLOAD,2023-09-22 22:45:25,15.08850302,0.0001594,53.2162,103.4735,88.4649,271.6525,0.0004882,7.492e-05,0.0,0 STARLINK-5415,1 54796U 22175AQ  23265.94820872  .00007492  00000-0  48820-3 0  9993,2 54796  53.2162 103.4735 0001594  88.4649 271.6525 15.08850302 42290,6917.849,95.437,540.817,538.611,0.0
